<?xml version="1.0" encoding="UTF-8"?>
<kml xmlns="http://www.opengis.net/kml/2.2">
<Document>
  <name>RECOVER v1 vs v2 examples</name>
  <Placemark>
    <name>000176  indistinguishable → recovering</name>
    <description><![CDATA[label: built_loss<br/>DoR v1 = 0.50, DoR v2 = 0.66]]></description>
    <Point><coordinates>29.137015,-26.488580,0</coordinates></Point>
  </Placemark>
  <Placemark>
    <name>000442  recovering → degraded</name>
    <description><![CDATA[label: built_loss<br/>DoR v1 = 0.75, DoR v2 = 0.33]]></description>
    <Point><coordinates>107.129126,52.115757,0</coordinates></Point>
  </Placemark>
  <Placemark>
    <name>000291  recovering → recovering</name>
    <description><![CDATA[label: crop_loss<br/>DoR v1 = 0.88, DoR v2 = 0.88]]></description>
    <Point><coordinates>69.167606,43.836767,0</coordinates></Point>
  </Placemark>
  <Placemark>
    <name>000632  degraded → degraded</name>
    <description><![CDATA[label: crop_loss<br/>DoR v1 = 0.08, DoR v2 = 0.08]]></description>
    <Point><coordinates>45.685494,57.643584,0</coordinates></Point>
  </Placemark>
</Document>
</kml>
